IRIDIUM 106             
1 41917U 17003A   24180.61928454 -.00000012  00000+0 -11209-4 0  9998
2 41917  86.3963  28.8087 0002479  92.4326 267.7153 14.34216636390212
IRIDIUM 103             
1 41918U 17003B   24180.60659783  .00000124  00000+0  37090-4 0  9992
2 41918  86.3969  28.7159 0001930  96.9793 263.1622 14.34218708390231
IRIDIUM 109             
1 41919U 17003C   24180.61294172  .00000016  00000+0 -14814-5 0  9992
2 41919  86.3971  28.7608 0001862  85.2432 274.8977 14.34217397390201
IRIDIUM 102             
1 41920U 17003D   24180.58122883  .00000081  00000+0  21996-4 0  9998
2 41920  86.3967  28.7128 0002155  82.4954 277.6486 14.34218267390280
IRIDIUM 105             
1 41921U 17003E   24180.55197631  .00000002  00000+0 -62956-5 0  9995
2 41921  86.3975 357.1636 0001958  93.4290 266.7130 14.34222442392139
IRIDIUM 104             
1 41922U 17003F   24180.59393063  .00000496  00000+0  16986-3 0  9993
2 41922  86.3969  28.7393 0001726  85.4278 274.7115 14.34220365390271
IRIDIUM 114             
1 41923U 17003G   24180.60025681  .00000048  00000+0  99947-5 0  9997
2 41923  86.3969  28.7223 0002408  90.7008 269.4464 14.34218119390252
IRIDIUM 108             
1 41924U 17003H   24180.55877668  .00000240  00000+0  78579-4 0  9993
2 41924  86.3975 357.0848 0002384  91.1353 269.0116 14.34219394392104
